CCSDS_OMM_VERS = 2.0
CREATION_DATE  = 
ORIGINATOR     = 

OBJECT_NAME    = 2025-274B
OBJECT_ID      = 2025-274B
CENTER_NAME    = EARTH
REF_FRAME      = TEME
TIME_SYSTEM    = UTC
MEAN_ELEMENT_THEORY = SGP/SGP4

EPOCH          = 2025-12-17T12:19:47.279424
MEAN_MOTION    = 14.91833349
ECCENTRICITY   = .00108541
INCLINATION    = 97.7393
RA_OF_ASC_NODE = 278.6155
ARG_OF_PERICENTER = 232.7713
MEAN_ANOMALY   = 127.2516

EPHEMERIS_TYPE = 0
CLASSIFICATION_TYPE = U
NORAD_CAT_ID   = 66651
ELEMENT_SET_NO = 999
REV_AT_EPOCH   = 311
BSTAR          = .23659654E-3
MEAN_MOTION_DOT = .2335E-4
MEAN_MOTION_DDOT = 0

CCSDS_OMM_VERS = 2.0
CREATION_DATE  = 
ORIGINATOR     = 

OBJECT_NAME    = 2025-274C
OBJECT_ID      = 2025-274C
CENTER_NAME    = EARTH
REF_FRAME      = TEME
TIME_SYSTEM    = UTC
MEAN_ELEMENT_THEORY = SGP/SGP4

EPOCH          = 2025-12-17T09:04:06.633120
MEAN_MOTION    = 14.91928653
ECCENTRICITY   = .00104377
INCLINATION    = 97.7398
RA_OF_ASC_NODE = 278.4873
ARG_OF_PERICENTER = 240.2032
MEAN_ANOMALY   = 119.8150

EPHEMERIS_TYPE = 0
CLASSIFICATION_TYPE = U
NORAD_CAT_ID   = 66652
ELEMENT_SET_NO = 999
REV_AT_EPOCH   = 309
BSTAR          = .19427292E-3
MEAN_MOTION_DOT = .1911E-4
MEAN_MOTION_DDOT = 0

CCSDS_OMM_VERS = 2.0
CREATION_DATE  = 
ORIGINATOR     = 

OBJECT_NAME    = 2025-274D
OBJECT_ID      = 2025-274D
CENTER_NAME    = EARTH
REF_FRAME      = TEME
TIME_SYSTEM    = UTC
MEAN_ELEMENT_THEORY = SGP/SGP4

EPOCH          = 2025-12-17T09:03:59.239872
MEAN_MOTION    = 14.91929618
ECCENTRICITY   = .00113136
INCLINATION    = 97.7394
RA_OF_ASC_NODE = 278.4871
ARG_OF_PERICENTER = 236.3034
MEAN_ANOMALY   = 123.7107

EPHEMERIS_TYPE = 0
CLASSIFICATION_TYPE = U
NORAD_CAT_ID   = 66653
ELEMENT_SET_NO = 999
REV_AT_EPOCH   = 309
BSTAR          = .13759111E-3
MEAN_MOTION_DOT = .1337E-4
MEAN_MOTION_DDOT = 0

CCSDS_OMM_VERS = 2.0
CREATION_DATE  = 
ORIGINATOR     = 

OBJECT_NAME    = JACK E
OBJECT_ID      = 2025-274E
CENTER_NAME    = EARTH
REF_FRAME      = TEME
TIME_SYSTEM    = UTC
MEAN_ELEMENT_THEORY = SGP/SGP4

EPOCH          = 2025-12-17T09:00:35.369568
MEAN_MOTION    = 14.92110150
ECCENTRICITY   = .00118672
INCLINATION    = 97.7398
RA_OF_ASC_NODE = 278.4910
ARG_OF_PERICENTER = 238.2156
MEAN_ANOMALY   = 121.7907

EPHEMERIS_TYPE = 0
CLASSIFICATION_TYPE = U
NORAD_CAT_ID   = 66654
ELEMENT_SET_NO = 999
REV_AT_EPOCH   = 309
BSTAR          = .17884312E-3
MEAN_MOTION_DOT = .1764E-4
MEAN_MOTION_DDOT = 0

CCSDS_OMM_VERS = 2.0
CREATION_DATE  = 
ORIGINATOR     = 

OBJECT_NAME    = 2025-274F
OBJECT_ID      = 2025-274F
CENTER_NAME    = EARTH
REF_FRAME      = TEME
TIME_SYSTEM    = UTC
MEAN_ELEMENT_THEORY = SGP/SGP4

EPOCH          = 2025-12-17T09:03:56.446560
MEAN_MOTION    = 14.91162042
ECCENTRICITY   = .00053526
INCLINATION    = 97.7334
RA_OF_ASC_NODE = 278.4862
ARG_OF_PERICENTER = 11.1739
MEAN_ANOMALY   = 348.9597

EPHEMERIS_TYPE = 0
CLASSIFICATION_TYPE = U
NORAD_CAT_ID   = 66655
ELEMENT_SET_NO = 999
REV_AT_EPOCH   = 309
BSTAR          = -.5061403E-5
MEAN_MOTION_DOT = -.105E-5
MEAN_MOTION_DDOT = 0

CCSDS_OMM_VERS = 2.0
CREATION_DATE  = 
ORIGINATOR     = 

OBJECT_NAME    = 2025-274G
OBJECT_ID      = 2025-274G
CENTER_NAME    = EARTH
REF_FRAME      = TEME
TIME_SYSTEM    = UTC
MEAN_ELEMENT_THEORY = SGP/SGP4

EPOCH          = 2025-12-17T08:56:52.771200
MEAN_MOTION    = 14.92303851
ECCENTRICITY   = .00124546
INCLINATION    = 97.7398
RA_OF_ASC_NODE = 278.4936
ARG_OF_PERICENTER = 239.8064
MEAN_ANOMALY   = 120.1922

EPHEMERIS_TYPE = 0
CLASSIFICATION_TYPE = U
NORAD_CAT_ID   = 66656
ELEMENT_SET_NO = 999
REV_AT_EPOCH   = 309
BSTAR          = .20576145E-3
MEAN_MOTION_DOT = .2048E-4
MEAN_MOTION_DDOT = 0

CCSDS_OMM_VERS = 2.0
CREATION_DATE  = 
ORIGINATOR     = 

OBJECT_NAME    = SPIRONE
OBJECT_ID      = 2025-274H
CENTER_NAME    = EARTH
REF_FRAME      = TEME
TIME_SYSTEM    = UTC
MEAN_ELEMENT_THEORY = SGP/SGP4

EPOCH          = 2025-12-17T07:16:45.967584
MEAN_MOTION    = 14.92482598
ECCENTRICITY   = .00106558
INCLINATION    = 97.7396
RA_OF_ASC_NODE = 278.4303
ARG_OF_PERICENTER = 258.6573
MEAN_ANOMALY   = 101.3449

EPHEMERIS_TYPE = 0
CLASSIFICATION_TYPE = U
NORAD_CAT_ID   = 66657
ELEMENT_SET_NO = 999
REV_AT_EPOCH   = 308
BSTAR          = .2135548E-3
MEAN_MOTION_DOT = .2137E-4
MEAN_MOTION_DDOT = 0

CCSDS_OMM_VERS = 2.0
CREATION_DATE  = 
ORIGINATOR     = 

OBJECT_NAME    = 2025-274J
OBJECT_ID      = 2025-274J
CENTER_NAME    = EARTH
REF_FRAME      = TEME
TIME_SYSTEM    = UTC
MEAN_ELEMENT_THEORY = SGP/SGP4

EPOCH          = 2025-12-17T08:49:51.232512
MEAN_MOTION    = 14.92653054
ECCENTRICITY   = .00111642
INCLINATION    = 97.7395
RA_OF_ASC_NODE = 278.4995
ARG_OF_PERICENTER = 261.6216
MEAN_ANOMALY   = 98.3738

EPHEMERIS_TYPE = 0
CLASSIFICATION_TYPE = U
NORAD_CAT_ID   = 66658
ELEMENT_SET_NO = 999
REV_AT_EPOCH   = 309
BSTAR          = .21576994E-3
MEAN_MOTION_DOT = .2169E-4
MEAN_MOTION_DDOT = 0

CCSDS_OMM_VERS = 2.0
CREATION_DATE  = 
ORIGINATOR     = 

OBJECT_NAME    = JACK K
OBJECT_ID      = 2025-274K
CENTER_NAME    = EARTH
REF_FRAME      = TEME
TIME_SYSTEM    = UTC
MEAN_ELEMENT_THEORY = SGP/SGP4

EPOCH          = 2025-12-17T13:35:42.925056
MEAN_MOTION    = 14.92838403
ECCENTRICITY   = .00119038
INCLINATION    = 97.7398
RA_OF_ASC_NODE = 278.7012
ARG_OF_PERICENTER = 262.3099
MEAN_ANOMALY   = 97.6768

EPHEMERIS_TYPE = 0
CLASSIFICATION_TYPE = U
NORAD_CAT_ID   = 66659
ELEMENT_SET_NO = 999
REV_AT_EPOCH   = 312
BSTAR          = .21471549E-3
MEAN_MOTION_DOT = .2169E-4
MEAN_MOTION_DDOT = 0

CCSDS_OMM_VERS = 2.0
CREATION_DATE  = 
ORIGINATOR     = 

OBJECT_NAME    = K-HERO
OBJECT_ID      = 2025-274L
CENTER_NAME    = EARTH
REF_FRAME      = TEME
TIME_SYSTEM    = UTC
MEAN_ELEMENT_THEORY = SGP/SGP4

EPOCH          = 2025-12-17T13:32:41.752032
MEAN_MOTION    = 14.92989761
ECCENTRICITY   = .00125054
INCLINATION    = 97.7401
RA_OF_ASC_NODE = 278.7048
ARG_OF_PERICENTER = 262.9512
MEAN_ANOMALY   = 97.0285

EPHEMERIS_TYPE = 0
CLASSIFICATION_TYPE = U
NORAD_CAT_ID   = 66660
ELEMENT_SET_NO = 999
REV_AT_EPOCH   = 312
BSTAR          = .24878267E-3
MEAN_MOTION_DOT = .2532E-4
MEAN_MOTION_DDOT = 0

CCSDS_OMM_VERS = 2.0
CREATION_DATE  = 
ORIGINATOR     = 

OBJECT_NAME    = SNUGLITE-III
OBJECT_ID      = 2025-274M
CENTER_NAME    = EARTH
REF_FRAME      = TEME
TIME_SYSTEM    = UTC
MEAN_ELEMENT_THEORY = SGP/SGP4

EPOCH          = 2025-12-17T08:40:14.996352
MEAN_MOTION    = 14.93123648
ECCENTRICITY   = .00131077
INCLINATION    = 97.7400
RA_OF_ASC_NODE = 278.5088
ARG_OF_PERICENTER = 265.0248
MEAN_ANOMALY   = 94.9476

EPHEMERIS_TYPE = 0
CLASSIFICATION_TYPE = U
NORAD_CAT_ID   = 66661
ELEMENT_SET_NO = 999
REV_AT_EPOCH   = 309
BSTAR          = .23340151E-3
MEAN_MOTION_DOT = .238E-4
MEAN_MOTION_DDOT = 0

CCSDS_OMM_VERS = 2.0
CREATION_DATE  = 
ORIGINATOR     = 

OBJECT_NAME    = 2025-274N
OBJECT_ID      = 2025-274N
CENTER_NAME    = EARTH
REF_FRAME      = TEME
TIME_SYSTEM    = UTC
MEAN_ELEMENT_THEORY = SGP/SGP4

EPOCH          = 2025-12-17T08:39:06.485472
MEAN_MOTION    = 14.93177819
ECCENTRICITY   = .00135319
INCLINATION    = 97.7400
RA_OF_ASC_NODE = 278.5101
ARG_OF_PERICENTER = 264.6128
MEAN_ANOMALY   = 95.3548

EPHEMERIS_TYPE = 0
CLASSIFICATION_TYPE = U
NORAD_CAT_ID   = 66662
ELEMENT_SET_NO = 999
REV_AT_EPOCH   = 309
BSTAR          = .2436366E-3
MEAN_MOTION_DOT = .2491E-4
MEAN_MOTION_DDOT = 0

