2025-274B               
1 66651U 25274B   25351.51374166  .00002335  00000+0  23660-3 0  9995
2 66651  97.7393 278.6155 0010854 232.7713 127.2516 14.91833349  3115
2025-274C               
1 66652U 25274C   25351.37785455  .00001911  00000+0  19427-3 0  9992
2 66652  97.7398 278.4873 0010437 240.2032 119.8150 14.91928653  3092
2025-274D               
1 66653U 25274D   25351.37776898  .00001337  00000+0  13759-3 0  9998
2 66653  97.7394 278.4871 0011313 236.3034 123.7107 14.91929618  3097
JACK E                  
1 66654U 25274E   25351.37540937  .00001764  00000+0  17884-3 0  9999
2 66654  97.7398 278.4910 0011867 238.2156 121.7907 14.92110150  3096
2025-274F               
1 66655U 25274F   25351.37773665 -.00000105  00000+0 -50614-5 0  9996
2 66655  97.7334 278.4862 0005352  11.1739 348.9597 14.91162042  3094
2025-274G               
1 66656U 25274G   25351.37283300  .00002048  00000+0  20576-3 0  9997
2 66656  97.7398 278.4936 0012454 239.8064 120.1922 14.92303851  3096
SPIRONE                 
1 66657U 25274H   25351.30330981  .00002137  00000+0  21355-3 0  9994
2 66657  97.7396 278.4303 0010655 258.6573 101.3449 14.92482598  3088
2025-274J               
1 66658U 25274J   25351.36795408  .00002169  00000+0  21577-3 0  9991
2 66658  97.7395 278.4995 0011164 261.6216  98.3738 14.92653054  3093
JACK K                  
1 66659U 25274K   25351.56646904  .00002169  00000+0  21472-3 0  9994
2 66659  97.7398 278.7012 0011903 262.3099  97.6768 14.92838403  3120
K-HERO                  
1 66660U 25274L   25351.56437213  .00002532  00000+0  24878-3 0  9994
2 66660  97.7401 278.7048 0012505 262.9512  97.0285 14.92989761  3123
SNUGLITE-III            
1 66661U 25274M   25351.36128468  .00002380  00000+0  23340-3 0  9996
2 66661  97.7400 278.5088 0013107 265.0248  94.9476 14.93123648  3093
2025-274N               
1 66662U 25274N   25351.36049173  .00002491  00000+0  24364-3 0  9992
2 66662  97.7400 278.5101 0013531 264.6128  95.3548 14.93177819  3097
